NORAD_CAT_ID,OBJECT_NAME,OBJECT_TYPE,EPOCH,MEAN_MOTION,ECCENTRICITY,INCLINATION,RA_OF_ASC_NODE,ARG_OF_PERICENTER,MEAN_ANOMALY,BSTAR,MEAN_MOTION_DOT,MEAN_MOTION_DDOT,TLE_LINE0,TLE_LINE1,TLE_LINE2,SEMIMAJOR_AXIS,PERIOD,APOGEE,PERIGEE,DECAYED
53427.0,STARLINK-4541,PAYLOAD,2023-11-08 11:35:55,15.08860895,0.0001452,53.2186,339.8222,96.3481,263.7676,0.0008056,0.00012564,0.0,0 STARLINK-4541,1 53427U 22097AR  23312.48327589  .00012564  00000-0  80560-3 0  9998,2 53427  53.2186 339.8222 0001452  96.3481 263.7676 15.08860895 69518,6917.817,95.436,540.686,538.677,0.0
53427.0,STARLINK-4541,PAYLOAD,2023-11-08 19:32:50,15.08846919,0.0001057,53.2187,338.3365,114.0776,246.0326,0.00043189,6.594e-05,0.0,0 STARLINK-4541,1 53427U 22097AR  23312.81447804  .00006594  00000-0  43189-3 0  9990,2 53427  53.2187 338.3365 0001057 114.0776 246.0326 15.08846919 69569,6917.859,95.437,540.455,538.993,0.0
53427.0,STARLINK-4541,PAYLOAD,2023-11-09 11:26:41,15.08866654,0.0001463,53.2185,335.3629,110.0887,250.0263,0.00035564,5.381e-05,0.0,0 STARLINK-4541,1 53427U 22097AR  23313.47686542  .00005381  00000-0  35564-3 0  9998,2 53427  53.2185 335.3629 0001463 110.0887 250.0263 15.08866654 69661,6917.799,95.436,540.676,538.652,0.0
53427.0,STARLINK-4541,PAYLOAD,2023-11-10 01:45:09,15.0885164,0.000155,53.2178,332.6857,97.0195,263.0974,-5.6541e-05,-1.188e-05,0.0,0 STARLINK-4541,1 53427U 22097AR  23314.07302622 -.00001188  00000-0 -56541-4 0  9991,2 53427  53.2178 332.6857 0001550  97.0195 263.0974 15.08851640 69751,6917.845,95.437,540.782,538.638,0.0
53427.0,STARLINK-4541,PAYLOAD,2023-11-10 08:06:41,15.08853219,0.0001365,53.2171,331.496,86.8076,273.3073,3.9568e-05,3.42e-06,0.0,0 STARLINK-4541,1 53427U 22097AR  23314.33798538  .00000342  00000-0  39568-4 0  9994,2 53427  53.2171 331.4960 0001365  86.8076 273.3073 15.08853219 70271,6917.84,95.437,540.649,538.761,0.0
53427.0,STARLINK-4541,PAYLOAD,2023-11-11 01:35:56,15.08840499,0.0001468,53.2174,328.2306,91.363,268.7531,-3.8221e-05,-8.96e-06,0.0,0 STARLINK-4541,1 53427U 22097AR  23315.06662885 -.00000896  00000-0 -38221-4 0  9991,2 53427  53.2174 328.2306 0001468  91.3630 268.7531 15.08840499 69904,6917.879,95.438,540.759,538.728,0.0
53427.0,STARLINK-4541,PAYLOAD,2023-11-11 07:57:29,15.08844963,0.0001507,53.2175,327.0414,94.0707,266.0458,9.7803e-05,1.269e-05,0.0,0 STARLINK-4541,1 53427U 22097AR  23315.33158731  .00001269  00000-0  97803-4 0  9995,2 53427  53.2175 327.0414 0001507  94.0707 266.0458 15.08844963 70429,6917.865,95.437,540.773,538.688,0.0
53427.0,STARLINK-4541,PAYLOAD,2023-11-11 17:29:48,15.08842854,0.0001467,53.2171,325.2561,91.6593,268.4568,8.1028e-05,1.002e-05,0.0,0 STARLINK-4541,1 53427U 22097AR  23315.72902835  .00001002  00000-0  81028-4 0  9997,2 53427  53.2171 325.2561 0001467  91.6593 268.4568 15.08842854 70480,6917.872,95.437,540.752,538.722,0.0
53427.0,STARLINK-4541,PAYLOAD,2023-11-12 07:48:16,15.08831549,0.0001485,53.2174,322.5806,90.1902,269.926,-6.5683e-06,-3.92e-06,0.0,0 STARLINK-4541,1 53427U 22097AR  23316.32519573 -.00000392  00000-0 -65683-5 0  9990,2 53427  53.2174 322.5806 0001485  90.1902 269.9260 15.08831549 70094,6917.906,95.438,540.799,538.744,0.0
53427.0,STARLINK-4541,PAYLOAD,2023-11-12 17:20:35,15.08839743,0.000158,53.2177,320.796,96.2837,263.8335,5.2347e-05,5.45e-06,0.0,0 STARLINK-4541,1 53427U 22097AR  23316.72263236  .00000545  00000-0  52347-4 0  9996,2 53427  53.2177 320.7960 0001580  96.2837 263.8335 15.08839743 70155,6917.881,95.438,540.839,538.653,0.0
53427.0,STARLINK-4541,PAYLOAD,2023-11-13 09:14:26,15.08844973,0.0001654,53.2184,317.8229,99.9843,260.1336,0.00040759,6.206e-05,0.0,0 STARLINK-4541,1 53427U 22097AR  23317.38503106  .00006206  00000-0  40759-3 0  9995,2 53427  53.2184 317.8229 0001654  99.9843 260.1336 15.08844973 70733,6917.865,95.437,540.874,538.586,0.0
53427.0,STARLINK-4541,PAYLOAD,2023-11-13 17:11:22,15.08846235,0.0001824,53.2192,316.3309,94.1945,265.9256,6.1418e-05,6.9e-06,0.0,0 STARLINK-4541,1 53427U 22097AR  23317.71622827  .00000690  00000-0  61418-4 0  9991,2 53427  53.2192 316.3309 0001824  94.1945 265.9256 15.08846235 70786,6917.861,95.437,540.988,538.465,0.0
53427.0,STARLINK-4541,PAYLOAD,2023-11-14 04:19:04,15.08834809,0.0001996,53.2192,314.25,81.2472,278.8746,6.2304e-05,7.03e-06,0.0,0 STARLINK-4541,1 53427U 22097AR  23318.17991605  .00000703  00000-0  62304-4 0  9995,2 53427  53.2192 314.2500 0001996  81.2472 278.8746 15.08834809 70374,6917.896,95.438,541.142,538.38,0.0
53427.0,STARLINK-4541,PAYLOAD,2023-11-14 07:29:51,15.08823053,0.0001904,53.2195,313.6565,94.6367,265.4843,0.00024545,3.619e-05,0.0,0 STARLINK-4541,1 53427U 22097AR  23318.31240164  .00003619  00000-0  24545-3 0  9991,2 53427  53.2195 313.6565 0001904  94.6367 265.4843 15.08823053 70392,6917.932,95.439,541.114,538.48,0.0
53427.0,STARLINK-4541,PAYLOAD,2023-11-14 17:02:09,15.08839692,0.0001631,53.2187,311.8744,86.684,273.4339,9.528e-05,1.229e-05,0.0,0 STARLINK-4541,1 53427U 22097AR  23318.70983625  .00001229  00000-0  95280-4 0  9990,2 53427  53.2187 311.8744 0001631  86.6840 273.4339 15.08839692 70458,6917.881,95.438,540.875,538.618,0.0
53427.0,STARLINK-4541,PAYLOAD,2023-11-15 08:56:00,15.08851927,0.0001742,53.2189,308.9,85.2373,274.8818,7.7592e-05,9.47e-06,0.0,0 STARLINK-4541,1 53427U 22097AR  23319.37222872  .00000947  00000-0  77592-4 0  9996,2 53427  53.2189 308.9000 0001742  85.2373 274.8818 15.08851927 70554,6917.844,95.437,540.914,538.504,0.0
53427.0,STARLINK-4541,PAYLOAD,2023-11-15 16:52:56,15.08839775,0.0002014,53.2177,307.4114,87.3409,272.7814,-1.2839e-05,-4.93e-06,0.0,0 STARLINK-4541,1 53427U 22097AR  23319.70343567 -.00000493  00000-0 -12839-4 0  9999,2 53427  53.2177 307.4114 0002014  87.3409 272.7814 15.08839775 70603,6917.881,95.438,541.139,538.353,0.0
53427.0,STARLINK-4541,PAYLOAD,2023-11-16 05:36:02,15.08839213,0.0001875,53.2194,305.0305,84.1253,275.9953,5.6772e-05,6.15e-06,0.0,0 STARLINK-4541,1 53427U 22097AR  23320.23335737  .00000615  00000-0  56772-4 0  9997,2 53427  53.2194 305.0305 0001875  84.1253 275.9953 15.08839213 71162,6917.883,95.438,541.045,538.451,0.0
53427.0,STARLINK-4541,PAYLOAD,2023-11-16 16:43:43,15.08840052,0.0001722,53.2193,302.9531,85.504,274.6149,9.3401e-05,1.199e-05,0.0,0 STARLINK-4541,1 53427U 22097AR  23320.69703657  .00001199  00000-0  93401-4 0  9995,2 53427  53.2193 302.9531 0001722  85.5040 274.6149 15.08840052 71232,6917.88,95.438,540.936,538.554,0.0
53427.0,STARLINK-4541,PAYLOAD,2023-11-17 03:51:25,15.08842588,0.0001786,53.2194,300.8708,89.1179,271.0018,8.1357e-05,1.007e-05,0.0,0 STARLINK-4541,1 53427U 22097AR  23321.16071530  .00001007  00000-0  81357-4 0  9991,2 53427  53.2194 300.8708 0001786  89.1179 271.0018 15.08842588 70825,6917.872,95.437,540.973,538.502,0.0
53427.0,STARLINK-4541,PAYLOAD,2023-11-17 05:26:48,15.08843215,0.0001701,53.2186,300.5723,94.135,265.9837,8.3486e-05,1.041e-05,0.0,0 STARLINK-4541,1 53427U 22097AR  23321.22695436  .00001041  00000-0  83486-4 0  9998,2 53427  53.2186 300.5723 0001701  94.1350 265.9837 15.08843215 71318,6917.871,95.437,540.912,538.559,0.0
53427.0,STARLINK-4541,PAYLOAD,2023-11-17 22:56:03,15.08833064,0.0001441,53.2182,297.3006,99.5898,260.5257,6.3985e-05,7.3e-06,0.0,0 STARLINK-4541,1 53427U 22097AR  23321.95560137  .00000730  00000-0  63985-4 0  9993,2 53427  53.2182 297.3006 0001441  99.5898 260.5257 15.08833064 71428,6917.902,95.438,540.763,538.77,0.0
53427.0,STARLINK-4541,PAYLOAD,2023-11-18 03:42:13,15.08833524,0.0001453,53.2184,296.4084,99.6327,260.4829,5.9697e-05,6.62e-06,0.0,0 STARLINK-4541,1 53427U 22097AR  23322.15432180  .00000662  00000-0  59697-4 0  9991,2 53427  53.2184 296.4084 0001453  99.6327 260.4829 15.08833524 70971,6917.9,95.438,540.77,538.76,0.0
53427.0,STARLINK-4541,PAYLOAD,2023-11-18 05:17:36,15.08836874,0.0001309,53.2175,296.1132,93.2629,266.8513,4.7997e-05,4.76e-06,0.0,0 STARLINK-4541,1 53427U 22097AR  23322.22056086  .00000476  00000-0  47997-4 0  9999,2 53427  53.2175 296.1132 0001309  93.2629 266.8513 15.08836874 71463,6917.89,95.438,540.66,538.849,0.0
53427.0,STARLINK-4541,PAYLOAD,2023-11-18 21:11:27,15.08836506,0.0001358,53.2177,293.1392,92.635,267.4798,4.094e-05,3.64e-06,0.0,0 STARLINK-4541,1 53427U 22097AR  23322.88296203  .00000364  00000-0  40940-4 0  9995,2 53427  53.2177 293.1392 0001358  92.6350 267.4798 15.08836506 71563,6917.891,95.438,540.696,538.817,0.0
53427.0,STARLINK-4541,PAYLOAD,2023-11-19 05:08:23,15.08842816,0.0001421,53.2181,291.6521,93.1886,266.9269,9.2451e-05,1.184e-05,0.0,0 STARLINK-4541,1 53427U 22097AR  23323.21415796  .00001184  00000-0  92451-4 0  9998,2 53427  53.2181 291.6521 0001421  93.1886 266.9269 15.08842816 71137,6917.872,95.437,540.72,538.754,0.0
53427.0,STARLINK-4541,PAYLOAD,2023-11-19 14:40:41,15.08843644,0.0001417,53.2181,289.8681,93.3032,266.8122,8.3254e-05,1.037e-05,0.0,0 STARLINK-4541,1 53427U 22097AR  23323.61159721  .00001037  00000-0  83254-4 0  9993,2 53427  53.2181 289.8681 0001417  93.3032 266.8122 15.08843644 71679,6917.869,95.437,540.715,538.754,0.0
53427.0,STARLINK-4541,PAYLOAD,2023-11-20 01:48:24,15.088334,0.0001443,53.2185,287.7866,92.0513,268.0644,0.00014336,1.994e-05,0.0,0 STARLINK-4541,1 53427U 22097AR  23324.07528280  .00001994  00000-0  14336-3 0  9990,2 53427  53.2185 287.7866 0001443  92.0513 268.0644 15.08833400 71261,6917.901,95.438,540.764,538.767,0.0
53427.0,STARLINK-4541,PAYLOAD,2023-11-20 06:34:33,15.0884019,0.000142,53.2192,286.8939,88.3814,271.7341,0.00011084,1.477e-05,0.0,0 STARLINK-4541,1 53427U 22097AR  23324.27400036  .00001477  00000-0  11084-3 0  9993,2 53427  53.2192 286.8939 0001420  88.3814 271.7341 15.08840190 71772,6917.88,95.438,540.727,538.762,0.0
53427.0,STARLINK-4541,PAYLOAD,2023-11-20 14:31:29,15.0884169,0.0001499,53.2194,285.4073,89.4491,270.6673,5.242e-05,5.46e-06,0.0,0 STARLINK-4541,1 53427U 22097AR  23324.60520094  .00000546  00000-0  52420-4 0  9993,2 53427  53.2194 285.4073 0001499  89.4491 270.6673 15.08841690 71825,6917.875,95.437,540.777,538.703,0.0
